[{"OBJECT_NAME":"STARLINK-31504","OBJECT_ID":"2024-056H","EPOCH":"2026-03-09T10:22:15.882528","MEAN_MOTION":15.27566705,"ECCENTRICITY":0.00012247,"INCLINATION":43.0012,"RA_OF_ASC_NODE":232.2747,"ARG_OF_PERICENTER":274.4841,"MEAN_ANOMALY":85.5871,"EPHEMERIS_TYPE":0,"CLASSIFICATION_TYPE":"U","NORAD_CAT_ID":59303,"ELEMENT_SET_NO":999,"REV_AT_EPOCH":11111,"BSTAR":1.9371967e-5,"MEAN_MOTION_DOT":2.71e-6,"MEAN_MOTION_DDOT":0},{"OBJECT_NAME":"TEVEL2-3","OBJECT_ID":"2025-052J","EPOCH":"2026-03-09T15:29:22.754400","MEAN_MOTION":15.30377031,"ECCENTRICITY":0.0004761,"INCLINATION":97.3994,"RA_OF_ASC_NODE":324.7775,"ARG_OF_PERICENTER":105.7353,"MEAN_ANOMALY":254.4413,"EPHEMERIS_TYPE":0,"CLASSIFICATION_TYPE":"U","NORAD_CAT_ID":63218,"ELEMENT_SET_NO":999,"REV_AT_EPOCH":5485,"BSTAR":0.00069446,"MEAN_MOTION_DOT":0.00020365,"MEAN_MOTION_DDOT":0}]
